[{"OBJECT_NAME":"OBJECT B","OBJECT_ID":"2022-023B","EPOCH":"2026-03-09T22:47:53.401632","MEAN_MOTION":15.18262382,"ECCENTRICITY":0.00937159,"INCLINATION":63.476,"RA_OF_ASC_NODE":246.6999,"ARG_OF_PERICENTER":346.6129,"MEAN_ANOMALY":13.2499,"EPHEMERIS_TYPE":0,"CLASSIFICATION_TYPE":"U","NORAD_CAT_ID":51947,"ELEMENT_SET_NO":999,"REV_AT_EPOCH":22265,"BSTAR":0.00086643699,"MEAN_MOTION_DOT":0.00019848,"MEAN_MOTION_DDOT":0},{"OBJECT_NAME":"STARLINK-32276","OBJECT_ID":"2024-155W","EPOCH":"2026-03-09T11:09:37.430784","MEAN_MOTION":15.30180708,"ECCENTRICITY":0.00012642,"INCLINATION":53.1601,"RA_OF_ASC_NODE":130.9073,"ARG_OF_PERICENTER":79.1509,"MEAN_ANOMALY":280.9634,"EPHEMERIS_TYPE":0,"CLASSIFICATION_TYPE":"U","NORAD_CAT_ID":60944,"ELEMENT_SET_NO":999,"REV_AT_EPOCH":8635,"BSTAR":-8.922271e-6,"MEAN_MOTION_DOT":-6.23e-6,"MEAN_MOTION_DDOT":0}]
